CCSDS_OMM_VERS = 2.0
CREATION_DATE  = 
ORIGINATOR     = 

OBJECT_NAME    = STARLINK-35875
OBJECT_ID      = 2025-299K
CENTER_NAME    = EARTH
REF_FRAME      = TEME
TIME_SYSTEM    = UTC
MEAN_ELEMENT_THEORY = SGP/SGP4

EPOCH          = 2026-01-08T02:23:39.016032
MEAN_MOTION    = 15.50608971
ECCENTRICITY   = .0001843
INCLINATION    = 42.9994
RA_OF_ASC_NODE = 157.7665
ARG_OF_PERICENTER = 279.6191
MEAN_ANOMALY   = 80.4460

EPHEMERIS_TYPE = 0
CLASSIFICATION_TYPE = U
NORAD_CAT_ID   = 67111
ELEMENT_SET_NO = 999
REV_AT_EPOCH   = 377
BSTAR          = .13153E-2
MEAN_MOTION_DOT = .77673E-3
MEAN_MOTION_DDOT = 0

CCSDS_OMM_VERS = 2.0
CREATION_DATE  = 
ORIGINATOR     = 

OBJECT_NAME    = STARLINK-35906
OBJECT_ID      = 2025-299L
CENTER_NAME    = EARTH
REF_FRAME      = TEME
TIME_SYSTEM    = UTC
MEAN_ELEMENT_THEORY = SGP/SGP4

EPOCH          = 2026-01-08T04:00:01.998720
MEAN_MOTION    = 15.50535406
ECCENTRICITY   = .0001619
INCLINATION    = 43.0002
RA_OF_ASC_NODE = 157.3635
ARG_OF_PERICENTER = 268.4276
MEAN_ANOMALY   = 109.5810

EPHEMERIS_TYPE = 0
CLASSIFICATION_TYPE = U
NORAD_CAT_ID   = 67112
ELEMENT_SET_NO = 999
REV_AT_EPOCH   = 494
BSTAR          = .5529E-3
MEAN_MOTION_DOT = .32177E-3
MEAN_MOTION_DDOT = 0

CCSDS_OMM_VERS = 2.0
CREATION_DATE  = 
ORIGINATOR     = 

OBJECT_NAME    = STARLINK-35789
OBJECT_ID      = 2025-299M
CENTER_NAME    = EARTH
REF_FRAME      = TEME
TIME_SYSTEM    = UTC
MEAN_ELEMENT_THEORY = SGP/SGP4

EPOCH          = 2026-01-08T04:00:01.998720
MEAN_MOTION    = 15.46131733
ECCENTRICITY   = .0001697
INCLINATION    = 43.0008
RA_OF_ASC_NODE = 157.3791
ARG_OF_PERICENTER = 266.2755
MEAN_ANOMALY   = 105.6394

EPHEMERIS_TYPE = 0
CLASSIFICATION_TYPE = U
NORAD_CAT_ID   = 67113
ELEMENT_SET_NO = 999
REV_AT_EPOCH   = 494
BSTAR          = -.46588E-1
MEAN_MOTION_DOT = -.207677E-1
MEAN_MOTION_DDOT = 0

CCSDS_OMM_VERS = 2.0
CREATION_DATE  = 
ORIGINATOR     = 

OBJECT_NAME    = STARLINK-36180
OBJECT_ID      = 2025-299N
CENTER_NAME    = EARTH
REF_FRAME      = TEME
TIME_SYSTEM    = UTC
MEAN_ELEMENT_THEORY = SGP/SGP4

EPOCH          = 2026-01-08T02:21:40.578048
MEAN_MOTION    = 15.50612173
ECCENTRICITY   = .0001431
INCLINATION    = 42.9989
RA_OF_ASC_NODE = 157.7546
ARG_OF_PERICENTER = 278.7947
MEAN_ANOMALY   = 81.2751

EPHEMERIS_TYPE = 0
CLASSIFICATION_TYPE = U
NORAD_CAT_ID   = 67114
ELEMENT_SET_NO = 999
REV_AT_EPOCH   = 377
BSTAR          = .17467E-2
MEAN_MOTION_DOT = .10362E-2
MEAN_MOTION_DDOT = 0

CCSDS_OMM_VERS = 2.0
CREATION_DATE  = 
ORIGINATOR     = 

OBJECT_NAME    = STARLINK-35892
OBJECT_ID      = 2025-299P
CENTER_NAME    = EARTH
REF_FRAME      = TEME
TIME_SYSTEM    = UTC
MEAN_ELEMENT_THEORY = SGP/SGP4

EPOCH          = 2026-01-08T04:00:01.998720
MEAN_MOTION    = 15.40693031
ECCENTRICITY   = .0001527
INCLINATION    = 43.0004
RA_OF_ASC_NODE = 157.5606
ARG_OF_PERICENTER = 268.5876
MEAN_ANOMALY   = 27.9572

EPHEMERIS_TYPE = 0
CLASSIFICATION_TYPE = U
NORAD_CAT_ID   = 67115
ELEMENT_SET_NO = 999
REV_AT_EPOCH   = 494
BSTAR          = .14085E-3
MEAN_MOTION_DOT = .5583E-4
MEAN_MOTION_DDOT = 0

CCSDS_OMM_VERS = 2.0
CREATION_DATE  = 
ORIGINATOR     = 

OBJECT_NAME    = STARLINK-35738
OBJECT_ID      = 2025-299Q
CENTER_NAME    = EARTH
REF_FRAME      = TEME
TIME_SYSTEM    = UTC
MEAN_ELEMENT_THEORY = SGP/SGP4

EPOCH          = 2026-01-08T04:00:01.998720
MEAN_MOTION    = 15.40684140
ECCENTRICITY   = .0001528
INCLINATION    = 43.0002
RA_OF_ASC_NODE = 157.4700
ARG_OF_PERICENTER = 267.0409
MEAN_ANOMALY   = 66.8153

EPHEMERIS_TYPE = 0
CLASSIFICATION_TYPE = U
NORAD_CAT_ID   = 67116
ELEMENT_SET_NO = 999
REV_AT_EPOCH   = 494
BSTAR          = .27122E-3
MEAN_MOTION_DOT = .11037E-3
MEAN_MOTION_DDOT = 0

CCSDS_OMM_VERS = 2.0
CREATION_DATE  = 
ORIGINATOR     = 

OBJECT_NAME    = STARLINK-35674
OBJECT_ID      = 2025-299R
CENTER_NAME    = EARTH
REF_FRAME      = TEME
TIME_SYSTEM    = UTC
MEAN_ELEMENT_THEORY = SGP/SGP4

EPOCH          = 2026-01-08T04:00:01.998720
MEAN_MOTION    = 15.40687625
ECCENTRICITY   = .0001966
INCLINATION    = 43.0010
RA_OF_ASC_NODE = 157.6821
ARG_OF_PERICENTER = 272.4095
MEAN_ANOMALY   = 334.3777

EPHEMERIS_TYPE = 0
CLASSIFICATION_TYPE = U
NORAD_CAT_ID   = 67117
ELEMENT_SET_NO = 999
REV_AT_EPOCH   = 484
BSTAR          = .7897E-4
MEAN_MOTION_DOT = .2995E-4
MEAN_MOTION_DDOT = 0

CCSDS_OMM_VERS = 2.0
CREATION_DATE  = 
ORIGINATOR     = 

OBJECT_NAME    = STARLINK-35701
OBJECT_ID      = 2025-299S
CENTER_NAME    = EARTH
REF_FRAME      = TEME
TIME_SYSTEM    = UTC
MEAN_ELEMENT_THEORY = SGP/SGP4

EPOCH          = 2026-01-08T02:19:41.683872
MEAN_MOTION    = 15.50622228
ECCENTRICITY   = .0002919
INCLINATION    = 42.9999
RA_OF_ASC_NODE = 157.7436
ARG_OF_PERICENTER = 280.8451
MEAN_ANOMALY   = 79.2081

EPHEMERIS_TYPE = 0
CLASSIFICATION_TYPE = U
NORAD_CAT_ID   = 67118
ELEMENT_SET_NO = 999
REV_AT_EPOCH   = 377
BSTAR          = .12894E-2
MEAN_MOTION_DOT = .76163E-3
MEAN_MOTION_DDOT = 0

CCSDS_OMM_VERS = 2.0
CREATION_DATE  = 
ORIGINATOR     = 

OBJECT_NAME    = STARLINK-36179
OBJECT_ID      = 2025-299T
CENTER_NAME    = EARTH
REF_FRAME      = TEME
TIME_SYSTEM    = UTC
MEAN_ELEMENT_THEORY = SGP/SGP4

EPOCH          = 2026-01-08T04:00:01.998720
MEAN_MOTION    = 15.40688933
ECCENTRICITY   = .0001717
INCLINATION    = 43.0009
RA_OF_ASC_NODE = 157.6508
ARG_OF_PERICENTER = 269.4198
MEAN_ANOMALY   = 349.8028

EPHEMERIS_TYPE = 0
CLASSIFICATION_TYPE = U
NORAD_CAT_ID   = 67119
ELEMENT_SET_NO = 999
REV_AT_EPOCH   = 505
BSTAR          = .69326E-4
MEAN_MOTION_DOT = .2592E-4
MEAN_MOTION_DDOT = 0

CCSDS_OMM_VERS = 2.0
CREATION_DATE  = 
ORIGINATOR     = 

OBJECT_NAME    = STARLINK-36217
OBJECT_ID      = 2025-299U
CENTER_NAME    = EARTH
REF_FRAME      = TEME
TIME_SYSTEM    = UTC
MEAN_ELEMENT_THEORY = SGP/SGP4

EPOCH          = 2026-01-08T02:19:12.226656
MEAN_MOTION    = 15.50627434
ECCENTRICITY   = .0002113
INCLINATION    = 43.0002
RA_OF_ASC_NODE = 157.7402
ARG_OF_PERICENTER = 280.0957
MEAN_ANOMALY   = 79.9665

EPHEMERIS_TYPE = 0
CLASSIFICATION_TYPE = U
NORAD_CAT_ID   = 67120
ELEMENT_SET_NO = 999
REV_AT_EPOCH   = 377
BSTAR          = .19739E-2
MEAN_MOTION_DOT = .117416E-2
MEAN_MOTION_DDOT = 0

CCSDS_OMM_VERS = 2.0
CREATION_DATE  = 
ORIGINATOR     = 

OBJECT_NAME    = STARLINK-36124
OBJECT_ID      = 2025-299V
CENTER_NAME    = EARTH
REF_FRAME      = TEME
TIME_SYSTEM    = UTC
MEAN_ELEMENT_THEORY = SGP/SGP4

EPOCH          = 2026-01-07T03:06:24.252768
MEAN_MOTION    = 15.50538893
ECCENTRICITY   = .00025455
INCLINATION    = 42.9991
RA_OF_ASC_NODE = 163.3817
ARG_OF_PERICENTER = 10.5156
MEAN_ANOMALY   = 349.5757

EPHEMERIS_TYPE = 0
CLASSIFICATION_TYPE = U
NORAD_CAT_ID   = 67121
ELEMENT_SET_NO = 999
REV_AT_EPOCH   = 362
BSTAR          = .19921456E-2
MEAN_MOTION_DOT = .118144E-2
MEAN_MOTION_DDOT = 0

CCSDS_OMM_VERS = 2.0
CREATION_DATE  = 
ORIGINATOR     = 

OBJECT_NAME    = STARLINK-36188
OBJECT_ID      = 2025-299W
CENTER_NAME    = EARTH
REF_FRAME      = TEME
TIME_SYSTEM    = UTC
MEAN_ELEMENT_THEORY = SGP/SGP4

EPOCH          = 2026-01-08T04:00:01.998720
MEAN_MOTION    = 15.42059700
ECCENTRICITY   = .0001751
INCLINATION    = 43.0004
RA_OF_ASC_NODE = 157.3817
ARG_OF_PERICENTER = 266.1896
MEAN_ANOMALY   = 104.2301

EPHEMERIS_TYPE = 0
CLASSIFICATION_TYPE = U
NORAD_CAT_ID   = 67122
ELEMENT_SET_NO = 999
REV_AT_EPOCH   = 505
BSTAR          = -.47906E-1
MEAN_MOTION_DOT = -.1879449E-1
MEAN_MOTION_DDOT = 0

