STARLINK-35875          
1 67111U 25299K   26008.09975713  .00077673  00000+0  13153-2 0  9994
2 67111  42.9994 157.7665 0001843 279.6191  80.4460 15.50608971  3774
STARLINK-35906          
1 67112U 25299L   26008.16668980  .00032177  00000+0  55290-3 0  9997
2 67112  43.0002 157.3635 0001619 268.4276 109.5810 15.50535406  4945
STARLINK-35789          
1 67113U 25299M   26008.16668980 -.02076770  00000+0 -46588-1 0  9997
2 67113  43.0008 157.3791 0001697 266.2755 105.6394 15.46131733  4943
STARLINK-36180          
1 67114U 25299N   26008.09838632  .00103620  00000+0  17467-2 0  9999
2 67114  42.9989 157.7546 0001431 278.7947  81.2751 15.50612173  3772
STARLINK-35892          
1 67115U 25299P   26008.16668980  .00005583  00000+0  14085-3 0  9998
2 67115  43.0004 157.5606 0001527 268.5876  27.9572 15.40693031  4941
STARLINK-35738          
1 67116U 25299Q   26008.16668980  .00011037  00000+0  27122-3 0  9996
2 67116  43.0002 157.4700 0001528 267.0409  66.8153 15.40684140  4949
STARLINK-35674          
1 67117U 25299R   26008.16668980  .00002995  00000+0  78970-4 0  9998
2 67117  43.0010 157.6821 0001966 272.4095 334.3777 15.40687625  4847
STARLINK-35701          
1 67118U 25299S   26008.09701023  .00076163  00000+0  12894-2 0  9996
2 67118  42.9999 157.7436 0002919 280.8451  79.2081 15.50622228  3776
STARLINK-36179          
1 67119U 25299T   26008.16668980  .00002592  00000+0  69326-4 0  9998
2 67119  43.0009 157.6508 0001717 269.4198 349.8028 15.40688933  5050
STARLINK-36217          
1 67120U 25299U   26008.09666929  .00117416  00000+0  19739-2 0  9996
2 67120  43.0002 157.7402 0002113 280.0957  79.9665 15.50627434  3777
STARLINK-36124          
1 67121U 25299V   26007.12944737  .00118144  00000+0  19921-2 0  9998
2 67121  42.9991 163.3817 0002545  10.5156 349.5757 15.50538893  3624
STARLINK-36188          
1 67122U 25299W   26008.16668980 -.01879449  00000+0 -47906-1 0  9995
2 67122  43.0004 157.3817 0001751 266.1896 104.2301 15.42059700  5059
